[{"OBJECT_NAME":"SL-16 R/B","OBJECT_ID":"1993-059B","EPOCH":"2026-04-05T20:41:50.361216","MEAN_MOTION":14.17235391,"ECCENTRICITY":0.0016958,"INCLINATION":70.9904,"RA_OF_ASC_NODE":313.8273,"ARG_OF_PERICENTER":176.2209,"MEAN_ANOMALY":183.9046,"EPHEMERIS_TYPE":0,"CLASSIFICATION_TYPE":"U","NORAD_CAT_ID":22803,"ELEMENT_SET_NO":999,"REV_AT_EPOCH":68338,"BSTAR":0.0001129,"MEAN_MOTION_DOT":1.8e-6,"MEAN_MOTION_DDOT":0},{"OBJECT_NAME":"ARIANE 40 R/B","OBJECT_ID":"1993-061H","EPOCH":"2026-04-05T17:20:55.222368","MEAN_MOTION":14.32876696,"ECCENTRICITY":0.0010451,"INCLINATION":98.4867,"RA_OF_ASC_NODE":164.0703,"ARG_OF_PERICENTER":198.0402,"MEAN_ANOMALY":162.0412,"EPHEMERIS_TYPE":0,"CLASSIFICATION_TYPE":"U","NORAD_CAT_ID":22830,"ELEMENT_SET_NO":999,"REV_AT_EPOCH":69797,"BSTAR":0.0001312,"MEAN_MOTION_DOT":3.15e-6,"MEAN_MOTION_DDOT":0},{"OBJECT_NAME":"COSMOS 2278","OBJECT_ID":"1994-023A","EPOCH":"2026-04-05T18:08:03.992064","MEAN_MOTION":14.14375158,"ECCENTRICITY":0.0009382,"INCLINATION":71.0504,"RA_OF_ASC_NODE":118.4724,"ARG_OF_PERICENTER":333.7113,"MEAN_ANOMALY":26.3532,"EPHEMERIS_TYPE":0,"CLASSIFICATION_TYPE":"U","NORAD_CAT_ID":23087,"ELEMENT_SET_NO":999,"REV_AT_EPOCH":64863,"BSTAR":5.506e-5,"MEAN_MOTION_DOT":5.8e-7,"MEAN_MOTION_DDOT":0},{"OBJECT_NAME":"SL-16 R/B","OBJECT_ID":"1994-023B","EPOCH":"2026-04-05T12:10:13.698336","MEAN_MOTION":14.15020032,"ECCENTRICITY":0.00056086,"INCLINATION":71.0032,"RA_OF_ASC_NODE":14.5673,"ARG_OF_PERICENTER":262.4104,"MEAN_ANOMALY":97.6382,"EPHEMERIS_TYPE":0,"CLASSIFICATION_TYPE":"U","NORAD_CAT_ID":23088,"ELEMENT_SET_NO":999,"REV_AT_EPOCH":64988,"BSTAR":8.6623944e-5,"MEAN_MOTION_DOT":1.2e-6,"MEAN_MOTION_DDOT":0},{"OBJECT_NAME":"SL-16 R/B","OBJECT_ID":"1994-074B","EPOCH":"2026-04-05T20:50:56.092128","MEAN_MOTION":14.7944109,"ECCENTRICITY":0.0007784,"INCLINATION":97.7067,"RA_OF_ASC_NODE":125.5808,"ARG_OF_PERICENTER":125.6803,"MEAN_ANOMALY":48.2543,"EPHEMERIS_TYPE":0,"CLASSIFICATION_TYPE":"U","NORAD_CAT_ID":23343,"ELEMENT_SET_NO":999,"REV_AT_EPOCH":69126,"BSTAR":8.9963e-5,"MEAN_MOTION_DOT":6.22e-6,"MEAN_MOTION_DDOT":0},{"OBJECT_NAME":"SL-16 R/B","OBJECT_ID":"1994-077B","EPOCH":"2026-04-05T19:57:27.171072","MEAN_MOTION":14.15567578,"ECCENTRICITY":0.000151,"INCLINATION":70.9817,"RA_OF_ASC_NODE":295.3886,"ARG_OF_PERICENTER":186.5703,"MEAN_ANOMALY":173.54,"EPHEMERIS_TYPE":0,"CLASSIFICATION_TYPE":"U","NORAD_CAT_ID":23405,"ELEMENT_SET_NO":999,"REV_AT_EPOCH":62007,"BSTAR":-8.0723e-5,"MEAN_MOTION_DOT":-2.06e-6,"MEAN_MOTION_DDOT":0},{"OBJECT_NAME":"ARIANE 40+ R/B","OBJECT_ID":"1995-021B","EPOCH":"2026-04-05T18:58:20.465760","MEAN_MOTION":14.39793486,"ECCENTRICITY":0.0007767,"INCLINATION":98.4451,"RA_OF_ASC_NODE":166.8996,"ARG_OF_PERICENTER":66.7534,"MEAN_ANOMALY":44.05,"EPHEMERIS_TYPE":0,"CLASSIFICATION_TYPE":"U","NORAD_CAT_ID":23561,"ELEMENT_SET_NO":999,"REV_AT_EPOCH":62314,"BSTAR":0.00014884,"MEAN_MOTION_DOT":4.23e-6,"MEAN_MOTION_DDOT":0},{"OBJECT_NAME":"SL-16 R/B","OBJECT_ID":"1995-058B","EPOCH":"2026-04-05T18:27:40.657248","MEAN_MOTION":14.15497955,"ECCENTRICITY":0.0010355,"INCLINATION":71.019,"RA_OF_ASC_NODE":123.4043,"ARG_OF_PERICENTER":76.1437,"MEAN_ANOMALY":284.0837,"EPHEMERIS_TYPE":0,"CLASSIFICATION_TYPE":"U","NORAD_CAT_ID":23705,"ELEMENT_SET_NO":999,"REV_AT_EPOCH":57168,"BSTAR":3.9767e-5,"MEAN_MOTION_DOT":3.0e-7,"MEAN_MOTION_DDOT":0},{"OBJECT_NAME":"SL-16 R/B","OBJECT_ID":"1996-051B","EPOCH":"2026-04-05T19:04:22.390176","MEAN_MOTION":14.12423692,"ECCENTRICITY":0.0013006,"INCLINATION":70.7579,"RA_OF_ASC_NODE":117.869,"ARG_OF_PERICENTER":103.2354,"MEAN_ANOMALY":257.0217,"EPHEMERIS_TYPE":0,"CLASSIFICATION_TYPE":"U","NORAD_CAT_ID":24298,"ELEMENT_SET_NO":999,"REV_AT_EPOCH":52547,"BSTAR":7.3471e-5,"MEAN_MOTION_DOT":8.7e-7,"MEAN_MOTION_DDOT":0},{"OBJECT_NAME":"ORBVIEW 2 (SEASTAR)","OBJECT_ID":"1997-037A","EPOCH":"2026-04-05T11:05:25.866816","MEAN_MOTION":14.35515062,"ECCENTRICITY":0.00020093,"INCLINATION":98.8613,"RA_OF_ASC_NODE":260.4898,"ARG_OF_PERICENTER":10.8613,"MEAN_ANOMALY":349.2615,"EPHEMERIS_TYPE":0,"CLASSIFICATION_TYPE":"U","NORAD_CAT_ID":24883,"ELEMENT_SET_NO":999,"REV_AT_EPOCH":51231,"BSTAR":0.00014784477,"MEAN_MOTION_DOT":3.79e-6,"MEAN_MOTION_DDOT":0},{"OBJECT_NAME":"SL-16 R/B","OBJECT_ID":"1998-043G","EPOCH":"2026-04-05T19:33:00.181152","MEAN_MOTION":14.26056544,"ECCENTRICITY":0.0008911,"INCLINATION":98.83,"RA_OF_ASC_NODE":49.3781,"ARG_OF_PERICENTER":299.3212,"MEAN_ANOMALY":60.7077,"EPHEMERIS_TYPE":0,"CLASSIFICATION_TYPE":"U","NORAD_CAT_ID":25400,"ELEMENT_SET_NO":999,"REV_AT_EPOCH":44285,"BSTAR":6.385e-5,"MEAN_MOTION_DOT":1.07e-6,"MEAN_MOTION_DDOT":0},{"OBJECT_NAME":"SL-16 R/B","OBJECT_ID":"1998-045B","EPOCH":"2026-04-05T20:05:58.239168","MEAN_MOTION":14.16194004,"ECCENTRICITY":0.0008304,"INCLINATION":71.0089,"RA_OF_ASC_NODE":124.4848,"ARG_OF_PERICENTER":328.6773,"MEAN_ANOMALY":31.3855,"EPHEMERIS_TYPE":0,"CLASSIFICATION_TYPE":"U","NORAD_CAT_ID":25407,"ELEMENT_SET_NO":999,"REV_AT_EPOCH":43094,"BSTAR":0.00010673,"MEAN_MOTION_DOT":1.64e-6,"MEAN_MOTION_DDOT":0},{"OBJECT_NAME":"ISS (ZARYA)","OBJECT_ID":"1998-067A","EPOCH":"2026-04-05T19:28:26.281920","MEAN_MOTION":15.48791307,"ECCENTRICITY":0.0006355,"INCLINATION":51.6329,"RA_OF_ASC_NODE":298.2672,"ARG_OF_PERICENTER":276.3215,"MEAN_ANOMALY":83.7049,"EPHEMERIS_TYPE":0,"CLASSIFICATION_TYPE":"U","NORAD_CAT_ID":25544,"ELEMENT_SET_NO":999,"REV_AT_EPOCH":56053,"BSTAR":0.0001599,"MEAN_MOTION_DOT":8.309e-5,"MEAN_MOTION_DDOT":0},{"OBJECT_NAME":"CZ-4B R/B","OBJECT_ID":"1999-025C","EPOCH":"2026-04-05T18:22:43.119840","MEAN_MOTION":14.18271038,"ECCENTRICITY":0.0035969,"INCLINATION":98.6569,"RA_OF_ASC_NODE":139.3989,"ARG_OF_PERICENTER":266.8529,"MEAN_ANOMALY":204.249,"EPHEMERIS_TYPE":0,"CLASSIFICATION_TYPE":"U","NORAD_CAT_ID":25732,"ELEMENT_SET_NO":999,"REV_AT_EPOCH":39200,"BSTAR":5.495e-5,"MEAN_MOTION_DOT":7.0e-7,"MEAN_MOTION_DDOT":0},{"OBJECT_NAME":"OKEAN-O","OBJECT_ID":"1999-039A","EPOCH":"2026-04-05T18:09:23.201856","MEAN_MOTION":14.80382034,"ECCENTRICITY":9.39e-5,"INCLINATION":97.9386,"RA_OF_ASC_NODE":155.3652,"ARG_OF_PERICENTER":106.2921,"MEAN_ANOMALY":253.8395,"EPHEMERIS_TYPE":0,"CLASSIFICATION_TYPE":"U","NORAD_CAT_ID":25860,"ELEMENT_SET_NO":999,"REV_AT_EPOCH":43839,"BSTAR":0.00013217,"MEAN_MOTION_DOT":9.57e-6,"MEAN_MOTION_DDOT":0},{"OBJECT_NAME":"SL-16 R/B","OBJECT_ID":"1999-039B","EPOCH":"2026-04-05T15:26:33.773280","MEAN_MOTION":14.81771577,"ECCENTRICITY":0.0015181,"INCLINATION":97.9908,"RA_OF_ASC_NODE":154.692,"ARG_OF_PERICENTER":164.919,"MEAN_ANOMALY":195.2479,"EPHEMERIS_TYPE":0,"CLASSIFICATION_TYPE":"U","NORAD_CAT_ID":25861,"ELEMENT_SET_NO":999,"REV_AT_EPOCH":44085,"BSTAR":0.00011284,"MEAN_MOTION_DOT":8.38e-6,"MEAN_MOTION_DDOT":0},{"OBJECT_NAME":"DELTA 2 R/B","OBJECT_ID":"1999-041E","EPOCH":"2026-04-05T11:36:28.652544","MEAN_MOTION":14.11900725,"ECCENTRICITY":0.05026284,"INCLINATION":51.761,"RA_OF_ASC_NODE":194.2438,"ARG_OF_PERICENTER":67.4452,"MEAN_ANOMALY":297.8864,"EPHEMERIS_TYPE":0,"CLASSIFICATION_TYPE":"U","NORAD_CAT_ID":25876,"ELEMENT_SET_NO":999,"REV_AT_EPOCH":36681,"BSTAR":0.00016937095,"MEAN_MOTION_DOT":8.06e-6,"MEAN_MOTION_DDOT":0}]
